STARLINK-1407
1 45703U 20035AY  26092.55461697  .00070161  00000+0  69925-3 0  9999
2 45703  53.0310 199.0124 0004147 204.7459 155.3357 15.65045837324020
